satname,norad_id,inclination_deg,eccentricity,mean_motion_rev_per_day,perigee_km,apogee_km,l1,l2
STARLINK-1008,44714,53.0538,0.000134,15.06404413,546.2700378674945,548.1260276562743,1 44714U 19074B   25344.66740726  .00005046  00000+0  35735-3 0  9997,2 44714  53.0538 226.2527 0001340  86.9472 273.1670 15.06404413335337
STARLINK-1012,44718,53.0541,0.0001371,15.06410847,546.228852915513,548.127774374514,1 44718U 19074F   25344.71163209  .00005751  00000+0  40454-3 0  9999,2 44718  53.0541 226.0544 0001371  95.4417 264.6728 15.06410847335337
STARLINK-1017,44723,53.0504,0.0006672,15.17598417,508.50341194751127,517.6990802631144,1 44723U 19074L   25344.09057206  .00012431  00000+0  62514-3 0  9999,2 44723  53.0504 222.6536 0006672  82.9606 277.2147 15.17598417335332
STARLINK-1019,44724,53.052,0.0004371,15.56018086,396.2324210220586,402.1571644752803,1 44724U 19074M   25344.81648904  .00046259  00000+0  65567-3 0  9997,2 44724  53.0520 214.7309 0004371 129.2204 230.9195 15.56018086335504
STARLINK-1020,44725,53.0543,7.85e-05,15.06406906,546.6467539235036,547.734030324068,1 44725U 19074N   25344.71346412  .00011358  00000+0  78002-3 0  9996,2 44725  53.0543 246.0483 0000785 143.5358 216.5684 15.06406906335055
STARLINK-1031,44736,53.0473,0.0007756,15.58331077,387.2355565270391,397.7381482468618,1 44736U 19074Z   25344.00002315  .00172140  00000+0  21846-2 0  9991,2 44736  53.0473 205.5988 0007756  81.1610 308.1705 15.58331077  5961
STARLINK-1036,44741,53.0531,0.0001509,15.06413065,546.1264868293383,548.2165449394324,1 44741U 19074AE  25344.14584673  .00010403  00000+0  71601-3 0  9992,2 44741  53.0531 248.5948 0001509  91.6483 268.4679 15.06413065334974
STARLINK-1039,44744,53.0504,0.0002682,15.15202381,518.5140389989683,522.214395051782,1 44744U 19074AH  25344.46922411  .00012719  00000+0  68429-3 0  9992,2 44744  53.0504 262.9124 0002682  39.6702 320.4486 15.15202381334806
STARLINK-1042,44747,53.0452,0.0002279,15.45228699,429.1544329186272,432.2579036347279,1 44747U 19074AL  25344.78375888  .00029175  00000+0  61081-3 0  9991,2 44747  53.0452 159.8253 0002279 194.2798 165.8143 15.45228699336304
STARLINK-1043,44748,53.0556,0.0002467,15.43740908,433.3993584037944,436.76099975995294,1 44748U 19074AM  25344.50929389  .00047087  00000+0  10287-2 0  9996,2 44748  53.0556 261.9679 0002467 105.0600 255.0679 15.43740908334829
STARLINK-1046,44751,53.0536,0.0002282,15.06412561,545.5927047940813,548.7534163057162,1 44751U 19074AQ  25344.79640677  .00006434  00000+0  45031-3 0  9998,2 44751  53.0536 265.6753 0002282  90.3456 269.7794 15.06412561334791
STARLINK-1047,44752,53.0706,0.0001149,15.30349039,473.9827029194994,475.5575009715276,1 44752U 19074AR  25344.61130385  .00013202  00000+0  45497-3 0  9997,2 44752  53.0706 201.4244 0001149 334.1213  25.9729 15.30349039335691
STARLINK-1048,44753,53.051,0.0001393,15.0638492,546.2930688595761,548.222483844268,1 44753U 19074AS  25344.68951117  .00000666  00000+0  63640-4 0  9990,2 44753  53.0510 226.1529 0001393  82.9294 277.1854 15.06384920335335
STARLINK-1053,44758,53.0377,0.0003689,15.66836625,365.47317721976196,370.4504489240471,1 44758U 19074AX  25344.81078968  .00092892  00000+0  85777-3 0  9990,2 44758  53.0377 167.4366 0003689 167.6717 192.4389 15.66836625336184
STARLINK-1060,44765,53.0511,0.0008189,15.75329898,338.18807591399946,349.19708840366,1 44765U 19074BE  25344.91670139  .00163868  00000+0  10465-2 0  9990,2 44765  53.0511 211.6393 0008189 125.2621 341.9312 15.75329898  5941
STARLINK-1063,44768,53.0533,0.0001499,15.0639638,546.184541327174,548.2607641510649,1 44768U 19074BH  25344.78535391  .00005758  00000+0  40517-3 0  9993,2 44768  53.0533 265.7274 0001499 101.4618 258.6540 15.06396380334806
STARLINK-1067,44771,53.0539,0.0001575,15.06416978,546.0687890998543,548.2502575046947,1 44771U 19074BL  25344.50889519  .00000284  00000+0  37943-4 0  9990,2 44771  53.0539 266.9678 0001575  73.0642 287.0520 15.06416978334757
STARLINK-1068,44772,53.0545,0.0001187,15.15744803,517.8996710807487,519.5369845355699,1 44772U 19074BM  25344.91670139  .00043121  00000+0  22372-2 0  9997,2 44772  53.0545 244.9375 0001187  95.3069 109.8592 15.15744803  5828
STARLINK-1112,44925,53.0477,0.0007075,15.6373348,372.1045335846966,381.66288789039027,1 44925U 20001M   25344.91670139  .00249606  00000+0  25472-2 0  9999,2 44925  53.0477 327.9591 0007075  31.1918 254.5768 15.63733480  5978
STARLINK-1114,44927,53.0553,0.0001546,15.06429121,546.0516626162826,548.1929527942239,1 44927U 20001P   25344.53837704  .00011936  00000+0  81821-3 0  9996,2 44927  53.0553  26.8329 0001546 106.3588 253.7571 15.06429121326413
STARLINK-1123,44930,53.0549,0.0001177,15.06415549,546.3487949863838,547.9790108189281,1 44930U 20001S   25344.81851727  .00006147  00000+0  43101-3 0  9999,2 44930  53.0549  25.5770 0001177  76.3041 283.8079 15.06415549326458
STARLINK-1144,44933,53.0414,0.0002365,15.73194877,348.18162893848876,351.36393026423957,1 44933U 20001V   25344.91670139  .00264407  00000+0  18297-2 0  9991,2 44933  53.0414 302.5805 0002365 123.4808 259.3640 15.73194877  5889
STARLINK-1094,44941,53.0576,0.0001479,15.06388489,546.2225734504464,548.2711019896433,1 44941U 20001AD  25344.76508532  .00000710  00000+0  66581-4 0  9996,2 44941  53.0576   5.8187 0001479  90.5553 269.5606 15.06388489326723
STARLINK-1122,44949,53.0558,0.0001787,15.06405368,545.957548992953,548.43266268758,1 44949U 20001AM  25344.78718845  .00005534  00000+0  39006-3 0  9996,2 44949  53.0558   5.7162 0001787  83.6732 276.4460 15.06405368326728
STARLINK-1080,44961,53.0549,0.0001348,15.06397357,546.2861202869117,548.1531964420074,1 44961U 20001AZ  25344.71900317  .00000214  00000+0  33231-4 0  9995,2 44961  53.0549 346.0234 0001348  87.1287 272.9856 15.06397357327000
STARLINK-1090,44968,53.0551,0.0001328,15.06402685,546.2836436165453,548.1230140078787,1 44968U 20001BG  25344.72268654 -.00003003  00000+0 -18275-3 0  9995,2 44968  53.0551 346.0066 0001328  86.7324 273.3817 15.06402685327001
STARLINK-1107,44972,52.9922,0.0008059,16.12459014,234.77250122146415,245.4397855199486,1 44972U 20001BL  25344.85082878  .02347392  63957-2  22751-2 0  9994,2 44972  52.9922 237.6922 0008059 191.5928 168.4922 16.12459014328520
STARLINK-1132,45044,53.0579,0.000152,15.06391327,546.185482540458,548.2907965828845,1 45044U 20006A   25344.61580469  .00000195  00000+0  31968-4 0  9997,2 45044  53.0579 306.4896 0001520  92.6996 267.4167 15.06391327323315
STARLINK-1131,45047,53.0557,0.000139,15.06416571,546.1981542853819,548.1233870656288,1 45047U 20006D   25344.26016311  .00011452  00000+0  78607-3 0  9999,2 45047  53.0557 328.6243 0001390  91.9337 268.1811 15.06416571322976
STARLINK-1134,45048,53.0368,0.0004498,15.32547663,465.1348318562932,471.29380950437644,1 45048U 20006E   25344.59234972  .00123018  00000+0  38078-2 0  9990,2 45048  53.0368 298.2304 0004498 342.3157  17.7686 15.32547663323438
STARLINK-1156,45054,53.0548,0.0001587,15.06430085,546.0203150975949,548.2183914641264,1 45054U 20006L   25344.23061604  .00010448  00000+0  71868-3 0  9995,2 45054  53.0548 328.2163 0001587 115.3195 244.7959 15.06430085322971
STARLINK-1159,45057,53.0542,0.0006744,15.56383606,393.56372043528245,402.70355427094455,1 45057U 20006P   25344.82980513  .00053804  00000+0  75016-3 0  9994,2 45057  53.0542 312.6686 0006744  60.3130 299.8551 15.56383606323255
STARLINK-1166,45060,53.0552,0.0001139,15.06408792,546.3958177240247,547.9734059872044,1 45060U 20006S   25344.65448116 -.00003278  00000+0 -20120-3 0  9995,2 45060  53.0552 326.3118 0001139 101.0481 259.0636 15.06408792323045
STARLINK-1169,45061,53.0546,0.0001312,15.06403531,546.2921316420161,548.1093402639308,1 45061U 20006T   25344.66186656  .00002244  00000+0  16949-3 0  9999,2 45061  53.0546 326.2800 0001312  84.9053 275.2086 15.06403531323048
STARLINK-1171,45062,53.0541,0.0012174,15.3938061,439.6296794850896,456.24981114458205,1 45062U 20006U   25344.63318767  .00220492  00000+0  53958-2 0  9994,2 45062  53.0541 315.7254 0012174  50.2852 309.9223 15.39380610323193
STARLINK-1133,45064,53.0559,0.0001217,15.06413218,546.328236978924,548.0138569575565,1 45064U 20006W   25344.59368154  .00003025  00000+0  22183-3 0  9994,2 45064  53.0559 306.5863 0001217  89.2872 270.8257 15.06413218323310
STARLINK-1167,45071,53.0563,0.0001452,15.06402634,546.1979256809673,548.209044557846,1 45071U 20006AD  25344.61948765  .00001454  00000+0  11650-3 0  9998,2 45071  53.0563 306.4696 0001452  87.4673 272.6482 15.06402634323316
STARLINK-1168,45072,53.0557,0.0001295,15.06412402,546.2767201393226,548.0703755712166,1 45072U 20006AE  25344.29142684  .00003972  00000+0  28531-3 0  9992,2 45072  53.0557 307.9413 0001295  89.8889 270.2248 15.06412402323265
STARLINK-1172,45074,53.0576,0.0001424,15.0640389,546.2134677372769,548.1858036111171,1 45074U 20006AG  25344.63422223  .00000911  00000+0  80063-4 0  9991,2 45074  53.0576 306.4065 0001424  85.7071 274.4081 15.06403890323315
STARLINK-1153,45080,53.0553,0.0001286,15.06425418,546.2430667180906,548.0242463309496,1 45080U 20006AN  25344.34671891  .00015603  00000+0  10633-2 0  9991,2 45080  53.0553 307.6939 0001286  98.9334 261.1800 15.06425418323271
STARLINK-1151,45081,53.0544,0.0001251,15.14733361,520.9249913312306,522.6513526092567,1 45081U 20006AP  25344.91670139  .01044532  00000+0  51628-1 0  9991,2 45081  53.0544 304.7813 0001251  89.7458  66.4673 15.14733361  5828
STARLINK-1185,45087,53.0564,0.000144,15.06412161,546.1770416502686,548.1715313007735,1 45087U 20006AV  25344.57341057  .00008914  00000+0  61633-3 0  9995,2 45087  53.0564 286.6774 0001440  89.6721 270.4433 15.06412161323593
STARLINK-1183,45088,53.0546,0.0001513,15.06408077,546.139001715761,548.2346046986113,1 45088U 20006AW  25344.26378572  .00005768  00000+0  40571-3 0  9996,2 45088  53.0546 288.0682 0001513  93.9525 266.1637 15.06408077323543
